[
{"title":"eastZeast","postcode":"M1 7DG","phone":"Tel: 0161 244 5353              Fax: 0161 288 7901"}
,
{"title":"San Carlo","postcode":"M3 2WY","phone":"Tel: 0161 834 6226"}
,
{"title":"Manchester House","postcode":"M3 3BZ","phone":"Tel: 0161 835 2557"}
,
{"title":"Australasia","postcode":"M3 3AE","phone":"Tel: 0161 831 0288"}
,
{"title":"The Restaurant Bar & Grill","postcode":"M2 5PJ","phone":"Tel: 0161 839 1999"}
,
{"title":"eastZeast","postcode":"M1 7DG","phone":"Tel: 0161 244 5353              Fax: 0161 288 7901"}
,
{"title":"Grafene","postcode":"M2 4LQ","phone":"Tel: 0161 696 9700"}
,
{"title":"Lunya","postcode":"M3 2BB","phone":"Tel: 0161 413 3317"}
,
{"title":"Wings","postcode":"M2 5LN","phone":"Tel: 0161 834 9000"}
,
{"title":"Gaucho Grill","postcode":"M3 2LB","phone":"Tel: 0161 833 4333              Fax: 0161 833 0888"}
,
{"title":"eastZeast Riverside","postcode":"M3 5BQ","phone":"Tel: 0161 834 3500"}
,
{"title":"Namaste Nepal","postcode":"M20 1LH","phone":"Tel: 0161 445 9060"}
,
{"title":"Great Kathmandu","postcode":"M20 1JQ","phone":"Tel: 0161 445 2145"}
,
{"title":"Sanam Sweet House & Restaurant","postcode":"M14 5AW","phone":"Tel: 0161 224 8824 / 1008"}
,
{"title":"Asha's","postcode":"M2 3NG","phone":"Tel: 0161 832 5309"}
,
{"title":"Rosso","postcode":"M2 2BG","phone":"Tel: 0161 832 1400"}
,
{"title":"San Carlo Cicchetti","postcode":"M3 2QG","phone":"Tel: 0161 839 2233"}
,
{"title":"Salvi's Cucina","postcode":"M2 6FW","phone":"Tel: 0161 222 8090"}
,
{"title":"San Carlo Bottega","postcode":"M3 1BD","phone":"Tel: 0161 838 0540"}
,
{"title":"Fox","postcode":"WA15 8ZN","phone":"Tel: 0161 980 3000"}
,
{"title":"Piccolino's (Caffe Grande)","postcode":"M2 4DW","phone":"Tel: 0161 835 9860"}
,
{"title":"Croma","postcode":"M2 4DE","phone":"Tel: 0161 237 9799"}
,
{"title":"Hard Rock Caf√©","postcode":"M4 2BS","phone":"Tel: 0161 831 6700"}
,
{"title":"Fazenda","postcode":"M3 3AP","phone":"Tel: 0161 207 1183"}
,
{"title":"Restaurant Bar and Grill","postcode":"M2 6JR","phone":"Tel: 0161 839 1999"}
,
{"title":"Albert Square Chop House","postcode":"M2 5PF","phone":"Tel: 0161 834 1866"}
,
{"title":"Spicy Mint","postcode":"M14 5TB","phone":"Tel: 0161 248 6200"}
,
{"title":"No 4 Dine & Wine","postcode":"M20 6WA","phone":"Tel: 0161 445 0448"}
,
{"title":"Swadesh","postcode":"M1 4GX","phone":"Tel: 0161 236 1313"}
,
{"title":"Punjab Tandoori Restaurant","postcode":"M14 5AP","phone":"Tel: 0161 225 2960"}
,
{"title":"Bukhara Banqueting","postcode":"M8 8PY","phone":"Tel: 0161 834 1222              Fax: 0161 839 1530"}
,
{"title":"Wings","postcode":"M2 5LN","phone":"Tel: 0161 834 9000"}
,
{"title":"Nueve","postcode":"M20 9NT","phone":"Tel: 0161 448 7500"}
,
{"title":"Masis' Armenian Restaurant","postcode":"M33 3SQ","phone":"Tel: 0161 973 6606"}
,
{"title":"Albert's Didsbury","postcode":"M20 2PU","phone":"Tel: 0161 434 8289"}
,
{"title":"","postcode":"ect 1st","phone":"Tel:"}
,
{"title":"Tinto","postcode":"M20 2DR","phone":"Tel: 0161 445 1042"}
,
{"title":"Sapporo Teppanyaki","postcode":"M3 4JN","phone":"Tel: 0161 831 9888              Fax: 0161 839 4030"}
,
{"title":"Grill On The Alley","postcode":"M2 6EG","phone":"Tel: 0161 833 3465"}
,
{"title":"63 Degrees","postcode":"M4 1HQ","phone":"Tel: 0161 832 5438"}
,
{"title":"The French - by Simon Rogan","postcode":"M60 2DS","phone":"Tel: 0161 932 4198"}
,
{"title":"UmeZushi","postcode":"M3 1PJ","phone":"Tel: 0871 811 8877"}
,
{"title":"The New Emperor","postcode":"M1 4HF","phone":"Tel: 0161 228 2883              Fax: 0161 228 6620"}
,
{"title":"Pacific","postcode":"M1 4HF","phone":"Tel: 0161 228 6668"}
,
{"title":"Yang Sing","postcode":"M1 4JY","phone":"Tel: 0161 236 2200"}
]